NORAD_CAT_ID,OBJECT_NAME,OBJECT_TYPE,EPOCH,MEAN_MOTION,ECCENTRICITY,INCLINATION,RA_OF_ASC_NODE,ARG_OF_PERICENTER,MEAN_ANOMALY,BSTAR,MEAN_MOTION_DOT,MEAN_MOTION_DDOT,TLE_LINE0,TLE_LINE1,TLE_LINE2,SEMIMAJOR_AXIS,PERIOD,APOGEE,PERIGEE,DECAYED
55768.0,STARLINK-5583,PAYLOAD,2024-02-12 02:47:15,14.98325459,0.0002561,70.0019,332.1338,237.3601,122.7311,7.9778e-05,8.59e-06,0.0,0 STARLINK-5583,1 55768U 23028AD  24043.11614873  .00000859  00000-0  79778-4 0  9994,2 55768  70.0019 332.1338 0002561 237.3601 122.7311 14.98325459 53194,6950.207,96.107,573.852,570.292,0.0
55768.0,STARLINK-5583,PAYLOAD,2024-02-12 05:59:31,14.98326544,0.0002532,70.0021,331.7974,236.438,123.6537,9.8106e-05,1.078e-05,0.0,0 STARLINK-5583,1 55768U 23028AD  24043.24966794  .00001078  00000-0  98106-4 0  9990,2 55768  70.0021 331.7974 0002532 236.4380 123.6537 14.98326544 53220,6950.204,96.107,573.828,570.309,0.0
55768.0,STARLINK-5583,PAYLOAD,2024-02-12 22:00:52,14.98326374,0.0002366,70.0022,330.1147,238.1843,121.9086,-5.1169e-05,-7.03e-06,0.0,0 STARLINK-5583,1 55768U 23028AD  24043.91727473 -.00000703  00000-0 -51169-4 0  9997,2 55768  70.0022 330.1147 0002366 238.1843 121.9086 14.98326374 53326,6950.204,96.107,573.714,570.425,0.0
55768.0,STARLINK-5583,PAYLOAD,2024-02-13 02:49:17,14.98322716,0.0002606,70.0022,329.6104,249.3889,110.699,-6.2638e-05,-8.4e-06,0.0,0 STARLINK-5583,1 55768U 23028AD  24044.11755795 -.00000840  00000-0 -62638-4 0  9993,2 55768  70.0022 329.6104 0002606 249.3889 110.6990 14.98322716 53340,6950.215,96.107,573.892,570.269,0.0
55768.0,STARLINK-5583,PAYLOAD,2024-02-13 12:26:05,14.98328926,0.000278,70.0007,328.5976,268.5005,91.5836,-0.00010893,-1.392e-05,0.0,0 STARLINK-5583,1 55768U 23028AD  24044.51811612 -.00001392  00000-0 -10893-3 0  9996,2 55768  70.0007 328.5976 0002780 268.5005  91.5836 14.98328926 53417,6950.196,96.107,573.993,570.129,0.0
55768.0,STARLINK-5583,PAYLOAD,2024-02-13 22:02:53,14.98330056,0.0002861,70.0002,327.5881,266.8788,93.2044,-2.1798e-05,-3.53e-06,0.0,0 STARLINK-5583,1 55768U 23028AD  24044.91867435 -.00000353  00000-0 -21798-4 0  9997,2 55768  70.0002 327.5881 0002861 266.8788  93.2044 14.98330056 53478,6950.193,96.107,574.046,570.069,0.0
55768.0,STARLINK-5583,PAYLOAD,2024-02-14 04:27:24,14.98339223,0.0002649,70.001,326.9159,261.4686,98.6173,8.1543e-05,8.8e-06,0.0,0 STARLINK-5583,1 55768U 23028AD  24045.18570409  .00000880  00000-0  81543-4 0  9996,2 55768  70.0010 326.9159 0002649 261.4686  98.6173 14.98339223 53501,6950.164,96.106,573.87,570.188,0.0
55768.0,STARLINK-5583,PAYLOAD,2024-02-14 12:28:06,14.98328851,0.00021,70.0035,326.0756,282.3695,77.7229,-4.6535e-05,-6.48e-06,0.0,0 STARLINK-5583,1 55768U 23028AD  24045.51951649 -.00000648  00000-0 -46535-4 0  9998,2 55768  70.0035 326.0756 0002100 282.3695  77.7229 14.98328851 53567,6950.196,96.107,573.521,570.602,0.0
55768.0,STARLINK-5583,PAYLOAD,2024-02-14 18:52:38,14.98322088,0.0002819,70.0001,325.3998,269.0054,91.0782,-3.0242e-05,-4.54e-06,0.0,0 STARLINK-5583,1 55768U 23028AD  24045.78655956 -.00000454  00000-0 -30242-4 0  9992,2 55768  70.0001 325.3998 0002819 269.0054  91.0782 14.98322088 53590,6950.217,96.108,574.042,570.123,0.0
55768.0,STARLINK-5583,PAYLOAD,2024-02-14 22:04:54,14.98322718,0.0002882,70.0,325.0634,269.4909,90.592,-3.9953e-05,-5.7e-06,0.0,0 STARLINK-5583,1 55768U 23028AD  24045.92007995 -.00000570  00000-0 -39953-4 0  9999,2 55768  70.0000 325.0634 0002882 269.4909  90.5920 14.98322718 53628,6950.215,96.107,574.083,570.077,0.0
55768.0,STARLINK-5583,PAYLOAD,2024-02-15 04:29:26,14.98326156,0.0002797,70.0004,324.3896,267.9068,92.1771,2.14e-05,1.62e-06,0.0,0 STARLINK-5583,1 55768U 23028AD  24046.18711694  .00000162  00000-0  21400-4 0  9999,2 55768  70.0004 324.3896 0002797 267.9068  92.1771 14.98326156 53664,6950.205,96.107,574.014,570.126,0.0
55768.0,STARLINK-5583,PAYLOAD,2024-02-15 18:54:39,14.98328614,0.0002876,70.0005,322.8748,267.6078,92.4751,-2.2974e-06,-1.2e-06,0.0,0 STARLINK-5583,1 55768U 23028AD  24046.78795666 -.00000120  00000-0 -22974-5 0  9990,2 55768  70.0005 322.8748 0002876 267.6078  92.4751 14.98328614 53741,6950.197,96.107,574.061,570.063,0.0
55768.0,STARLINK-5583,PAYLOAD,2024-02-15 22:06:55,14.98328697,0.0002875,70.0005,322.5382,267.4968,92.5862,-1.5107e-06,-1.11e-06,0.0,0 STARLINK-5583,1 55768U 23028AD  24046.92147665 -.00000111  00000-0 -15107-5 0  9996,2 55768  70.0005 322.5382 0002875 267.4968  92.5862 14.98328697 53775,6950.197,96.107,574.06,570.064,0.0
55768.0,STARLINK-5583,PAYLOAD,2024-02-16 04:31:27,14.98336858,0.0002866,70.0002,321.865,266.9109,93.1722,-1.0122e-05,-2.14e-06,0.0,0 STARLINK-5583,1 55768U 23028AD  24047.18851131 -.00000214  00000-0 -10122-4 0  9990,2 55768  70.0002 321.8650 0002866 266.9109  93.1722 14.98336858 53807,6950.172,96.107,574.029,570.045,0.0
55768.0,STARLINK-5583,PAYLOAD,2024-02-16 10:55:59,14.98351257,0.0002753,70.0004,321.1919,267.7201,92.3643,-0.00037516,-4.569e-05,0.0,0 STARLINK-5583,1 55768U 23028AD  24047.45554992 -.00004569  00000-0 -37516-3 0  9997,2 55768  70.0004 321.1919 0002753 267.7201  92.3643 14.98351257 53855,6950.127,96.106,573.906,570.079,0.0
55768.0,STARLINK-5583,PAYLOAD,2024-02-16 18:56:40,14.98326639,0.0002829,70.0002,320.3503,264.5324,95.5512,8.677e-05,9.42e-06,0.0,0 STARLINK-5583,1 55768U 23028AD  24047.78935446  .00000942  00000-0  86770-4 0  9996,2 55768  70.0002 320.3503 0002829 264.5324  95.5512 14.98326639 53898,6950.203,96.107,574.034,570.102,0.0
55768.0,STARLINK-5583,PAYLOAD,2024-02-16 22:08:56,14.98328136,0.0002776,70.0002,320.0135,264.5829,95.5014,6.4054e-05,6.71e-06,0.0,0 STARLINK-5583,1 55768U 23028AD  24047.92287447  .00000671  00000-0  64054-4 0  9993,2 55768  70.0002 320.0135 0002776 264.5829  95.5014 14.98328136 53922,6950.199,96.107,573.993,570.134,0.0
55768.0,STARLINK-5583,PAYLOAD,2024-02-17 10:58:00,14.98331539,0.0002656,70.0002,318.6668,270.1518,89.9336,2.0302e-05,1.49e-06,0.0,0 STARLINK-5583,1 55768U 23028AD  24048.45695317  .00000149  00000-0  20302-4 0  9999,2 55768  70.0002 318.6668 0002656 270.1518  89.9336 14.98331539 54006,6950.188,96.107,573.899,570.207,0.0
55768.0,STARLINK-5583,PAYLOAD,2024-02-17 18:58:41,14.98329864,0.0002581,70.0003,317.8268,265.5844,94.502,-7.3931e-06,-1.81e-06,0.0,0 STARLINK-5583,1 55768U 23028AD  24048.79075490 -.00000181  00000-0 -73931-5 0  9995,2 55768  70.0003 317.8268 0002581 265.5844  94.5020 14.98329864 54045,6950.193,96.107,573.852,570.264,0.0
55768.0,STARLINK-5583,PAYLOAD,2024-02-17 22:10:57,14.98328351,0.0002568,70.0003,317.4898,264.4903,95.5963,-1.2983e-05,-2.48e-06,0.0,0 STARLINK-5583,1 55768U 23028AD  24048.92427585 -.00000248  00000-0 -12983-4 0  9999,2 55768  70.0003 317.4898 0002568 264.4903  95.5963 14.98328351 54079,6950.198,96.107,573.848,570.278,0.0
55768.0,STARLINK-5583,PAYLOAD,2024-02-18 11:00:01,14.98339714,0.0002538,70.0006,316.143,266.1833,93.9036,-0.00014163,-1.783e-05,0.0,0 STARLINK-5583,1 55768U 23028AD  24049.45835120 -.00001783  00000-0 -14163-3 0  9992,2 55768  70.0006 316.1430 0002538 266.1833  93.9036 14.98339714 54155,6950.163,96.106,573.792,570.264,0.0
55768.0,STARLINK-5583,PAYLOAD,2024-02-18 19:00:42,14.98330458,0.0002706,69.9997,315.3002,268.9889,91.096,-4.2119e-06,-1.43e-06,0.0,0 STARLINK-5583,1 55768U 23028AD  24049.79215281 -.00000143  00000-0 -42119-5 0  9992,2 55768  69.9997 315.3002 0002706 268.9889  91.0960 14.98330458 54190,6950.191,96.107,573.937,570.176,0.0
55768.0,STARLINK-5583,PAYLOAD,2024-02-18 22:12:58,14.98329621,0.0002677,69.9996,314.9633,269.208,90.8772,-2.9782e-05,-4.48e-06,0.0,0 STARLINK-5583,1 55768U 23028AD  24049.92567405 -.00000448  00000-0 -29782-4 0  9993,2 55768  69.9996 314.9633 0002677 269.2080  90.8772 14.98329621 54220,6950.194,96.107,573.92,570.198,0.0
55768.0,STARLINK-5583,PAYLOAD,2024-02-19 11:02:02,14.98327741,0.0002374,70.0013,313.6166,276.0412,84.0477,-5.4717e-05,-7.46e-06,0.0,0 STARLINK-5583,1 55768U 23028AD  24050.45975593 -.00000746  00000-0 -54717-4 0  9991,2 55768  70.0013 313.6166 0002374 276.0412  84.0477 14.98327741 54306,6950.2,96.107,573.715,570.415,0.0
55768.0,STARLINK-5583,PAYLOAD,2024-02-19 19:02:43,14.98315098,0.0003072,70.0008,312.774,270.2163,89.8643,9.2239e-05,1.007e-05,0.0,0 STARLINK-5583,1 55768U 23028AD  24050.79355826  .00001007  00000-0  92239-4 0  9999,2 55768  70.0008 312.7740 0003072 270.2163  89.8643 14.98315098 54347,6950.239,96.108,574.239,569.969,0.0
55768.0,STARLINK-5583,PAYLOAD,2024-02-19 22:14:59,14.98314286,0.0003111,69.9997,312.4373,269.6353,90.4449,6.3069e-05,6.59e-06,0.0,0 STARLINK-5583,1 55768U 23028AD  24050.92708051  .00000659  00000-0  63069-4 0  9997,2 55768  69.9997 312.4373 0003111 269.6353  90.4449 14.98314286 54370,6950.241,96.108,574.269,569.944,0.0
55768.0,STARLINK-5583,PAYLOAD,2024-02-20 11:04:03,14.98329228,0.0002855,69.9995,311.0916,269.5369,90.5463,-3.1459e-05,-4.68e-06,0.0,0 STARLINK-5583,1 55768U 23028AD  24051.46115560 -.00000468  00000-0 -31459-4 0  9992,2 55768  69.9995 311.0916 0002855 269.5369  90.5463 14.98329228 54443,6950.195,96.107,574.045,570.076,0.0
55768.0,STARLINK-5583,PAYLOAD,2024-02-20 22:16:59,14.98330875,0.0002968,69.9989,309.9135,268.9942,91.0877,7.3372e-05,7.83e-06,0.0,0 STARLINK-5583,1 55768U 23028AD  24051.92847115  .00000783  00000-0  73372-4 0  9999,2 55768  69.9989 309.9135 0002968 268.9942  91.0877 14.98330875 54524,6950.19,96.107,574.118,569.992,0.0
55768.0,STARLINK-5583,PAYLOAD,2024-02-21 03:05:23,14.98339898,0.0002984,69.9988,309.4082,269.653,90.4287,4.8563e-05,4.87e-06,0.0,0 STARLINK-5583,1 55768U 23028AD  24052.12874542  .00000487  00000-0  48563-4 0  9991,2 55768  69.9988 309.4082 0002984 269.6530  90.4287 14.98339898 54542,6950.162,96.106,574.101,569.953,0.0
55768.0,STARLINK-5583,PAYLOAD,2024-02-21 19:06:44,14.98325495,0.0002896,69.999,307.7246,269.4667,90.616,6.773e-05,7.15e-06,0.0,0 STARLINK-5583,1 55768U 23028AD  24052.79635313  .00000715  00000-0  67730-4 0  9996,2 55768  69.9990 307.7246 0002896 269.4667  90.6160 14.98325495 54640,6950.207,96.107,574.085,570.059,0.0
